start=new Date('2022-08-08T00:00:00.000Z').valueOf();
sats=[{"RCS_SIZE":"LARGE","MEAN_MOTION_DOT":"0.00002181","SEMIMAJOR_AXIS":"6925.342","MEAN_MOTION_DDOT":"0.0000000000000","OBJECT_ID":"2021-017C","CLASSIFICATION_TYPE":"U","MEAN_ELEMENT_THEORY":"SGP4","PERIAPSIS":"546.310","EPOCH":"2022-08-07T19:47:48.442272","ECCENTRICITY":"0.00012950","GP_ID":"209792685","MEAN_ANOMALY":"282.8295","FILE":"3531552","TLE_LINE1":"1 47724U 21017C   22219.82486623  .00002181  00000-0  16523-3 0  9992","ARG_OF_PERICENTER":"77.2839","OBJECT_NAME":"STARLINK-2116","COUNTRY_CODE":"US","INCLINATION":"53.0540","DECAY_DATE":null,"REV_AT_EPOCH":"8140","LAUNCH_DATE":"2021-03-04","CENTER_NAME":"EARTH","PERIOD":"95.592","NORAD_CAT_ID":"47724","APOAPSIS":"548.104","OBJECT_TYPE":"PAYLOAD","EPHEMERIS_TYPE":"0","RA_OF_ASC_NODE":"251.8382","BSTAR":"0.00016523000000","SITE":"AFETR","ELEMENT_SET_NO":"999","REF_FRAME":"TEME","TLE_LINE2":"2 47724  53.0540 251.8382 0001295  77.2839 282.8295 15.06402118 81402","TIME_SYSTEM":"UTC","MEAN_MOTION":"15.06402118"},{"MEAN_ELEMENT_THEORY":"SGP4","PERIAPSIS":"546.273","EPOCH":"2022-08-07T17:25:49.403136","GP_ID":"209792435","MEAN_ANOMALY":"276.2944","ECCENTRICITY":"0.00013870","RCS_SIZE":"LARGE","SEMIMAJOR_AXIS":"6925.369","MEAN_MOTION_DOT":"0.00000966","MEAN_MOTION_DDOT":"0.0000000000000","OBJECT_ID":"2021-017D","CLASSIFICATION_TYPE":"U","ARG_OF_PERICENTER":"83.8203","COUNTRY_CODE":"US","OBJECT_NAME":"STARLINK-2125","INCLINATION":"53.0552","DECAY_DATE":null,"REV_AT_EPOCH":"8042","FILE":"3531552","TLE_LINE1":"1 47725U 21017D   22219.72626624  .00000966  00000-0  83755-4 0  9990","EPHEMERIS_TYPE":"0","RA_OF_ASC_NODE":"322.2862","SITE":"AFETR","BSTAR":"0.00008375500000","ELEMENT_SET_NO":"999","LAUNCH_DATE":"2021-03-04","CENTER_NAME":"EARTH","PERIOD":"95.593","NORAD_CAT_ID":"47725","APOAPSIS":"548.195","OBJECT_TYPE":"PAYLOAD","TIME_SYSTEM":"UTC","MEAN_MOTION":"15.06393344","REF_FRAME":"TEME","TLE_LINE2":"2 47725  53.0552 322.2862 0001387  83.8203 276.2944 15.06393344 80421"},{"TIME_SYSTEM":"UTC","MEAN_MOTION":"15.06396451","TLE_LINE2":"2 47726  53.0565 323.2383 0001361  81.8230 278.2914 15.06396451 80381","REF_FRAME":"TEME","BSTAR":"0.00007494200000","SITE":"AFETR","EPHEMERIS_TYPE":"0","RA_OF_ASC_NODE":"323.2383","ELEMENT_SET_NO":"999","CENTER_NAME":"EARTH","PERIOD":"95.592","LAUNCH_DATE":"2021-03-04","OBJECT_TYPE":"PAYLOAD","APOAPSIS":"548.167","NORAD_CAT_ID":"47726","ARG_OF_PERICENTER":"81.8230","COUNTRY_CODE":"US","INCLINATION":"53.0565","OBJECT_NAME":"STARLINK-2126","DECAY_DATE":null,"REV_AT_EPOCH":"8038","FILE":"3531314","TLE_LINE1":"1 47726U 21017E   22219.51247897  .00000835  00000-0  74942-4 0  9992","MEAN_ELEMENT_THEORY":"SGP4","PERIAPSIS":"546.282","MEAN_ANOMALY":"278.2914","GP_ID":"209762267","ECCENTRICITY":"0.00013610","EPOCH":"2022-08-07T12:17:58.183008","MEAN_MOTION_DOT":"0.00000835","SEMIMAJOR_AXIS":"6925.359","RCS_SIZE":"LARGE","CLASSIFICATION_TYPE":"U","MEAN_MOTION_DDOT":"0.0000000000000","OBJECT_ID":"2021-017E"},{"ELEMENT_SET_NO":"999","SITE":"AFETR","BSTAR":"0.00025877000000","RA_OF_ASC_NODE":"241.9774","EPHEMERIS_TYPE":"0","OBJECT_TYPE":"PAYLOAD","NORAD_CAT_ID":"47727","APOAPSIS":"548.334","CENTER_NAME":"EARTH","PERIOD":"95.592","LAUNCH_DATE":"2021-03-04","MEAN_MOTION":"15.06407301","TIME_SYSTEM":"UTC","TLE_LINE2":"2 47727  53.0534 241.9774 0001650  64.5351 295.5809 15.06407301 81586","REF_FRAME":"TEME","GP_ID":"209793422","MEAN_ANOMALY":"295.5809","ECCENTRICITY":"0.00016500","EPOCH":"2022-08-07T19:05:18.877632","PERIAPSIS":"546.049","MEAN_ELEMENT_THEORY":"SGP4","CLASSIFICATION_TYPE":"U","OBJECT_ID":"2021-017F","MEAN_MOTION_DDOT":"0.0000000000000","SEMIMAJOR_AXIS":"6925.326","MEAN_MOTION_DOT":"0.00003576","RCS_SIZE":"LARGE","REV_AT_EPOCH":"8158","DECAY_DATE":null,"COUNTRY_CODE":"US","OBJECT_NAME":"STARLINK-2129","INCLINATION":"53.0534","ARG_OF_PERICENTER":"64.5351","TLE_LINE1":"1 47727U 21017F   22219.79535738  .00003576  00000-0  25877-3 0  9994","FILE":"3531552"},{"OBJECT_TYPE":"PAYLOAD","NORAD_CAT_ID":"47728","APOAPSIS":"548.039","CENTER_NAME":"EARTH","PERIOD":"95.592","LAUNCH_DATE":"2021-03-04","ELEMENT_SET_NO":"999","BSTAR":"0.00010976000000","SITE":"AFETR","EPHEMERIS_TYPE":"0","RA_OF_ASC_NODE":"322.4616","TLE_LINE2":"2 47728  53.0556 322.4616 0001216  89.3125 270.8004 15.06405308 80478","REF_FRAME":"TEME","TIME_SYSTEM":"UTC","MEAN_MOTION":"15.06405308","CLASSIFICATION_TYPE":"U","MEAN_MOTION_DDOT":"0.0000000000000","OBJECT_ID":"2021-017G","SEMIMAJOR_AXIS":"6925.332","MEAN_MOTION_DOT":"0.00001354","RCS_SIZE":"LARGE","GP_ID":"209792185","MEAN_ANOMALY":"270.8004","ECCENTRICITY":"0.00012160","EPOCH":"2022-08-07T16:27:25.906464","MEAN_ELEMENT_THEORY":"SGP4","PERIAPSIS":"546.355","FILE":"3531552","TLE_LINE1":"1 47728U 21017G   22219.68571651  .00001354  00000-0  10976-3 0  9993","DECAY_DATE":null,"REV_AT_EPOCH":"8047","ARG_OF_PERICENTER":"89.3125","COUNTRY_CODE":"US","OBJECT_NAME":"STARLINK-2131","INCLINATION":"53.0556"},{"TLE_LINE2":"2 47729  53.0546 266.9423 0001102  91.3974 268.7142 15.06427765 81207","REF_FRAME":"TEME","MEAN_MOTION":"15.06427765","TIME_SYSTEM":"UTC","OBJECT_TYPE":"PAYLOAD","APOAPSIS":"547.892","NORAD_CAT_ID":"47729","CENTER_NAME":"EARTH","PERIOD":"95.590","LAUNCH_DATE":"2021-03-04","ELEMENT_SET_NO":"999","BSTAR":"-0.00035101000000","SITE":"AFETR","EPHEMERIS_TYPE":"0","RA_OF_ASC_NODE":"266.9423","TLE_LINE1":"1 47729U 21017H   22219.84745500 -.00005510  00000-0 -35101-3 0  9995","FILE":"3531552","REV_AT_EPOCH":"8120","DECAY_DATE":null,"COUNTRY_CODE":"US","INCLINATION":"53.0546","OBJECT_NAME":"STARLINK-2132","ARG_OF_PERICENTER":"91.3974","CLASSIFICATION_TYPE":"U","OBJECT_ID":"2021-017H","MEAN_MOTION_DDOT":"0.0000000000000","MEAN_MOTION_DOT":"-0.00005510","SEMIMAJOR_AXIS":"6925.263","RCS_SIZE":"LARGE","ECCENTRICITY":"0.00011020","GP_ID":"209792936","MEAN_ANOMALY":"268.7142","EPOCH":"2022-08-07T20:20:20.112000","PERIAPSIS":"546.365","MEAN_ELEMENT_THEORY":"SGP4"},{"MEAN_ELEMENT_THEORY":"SGP4","PERIAPSIS":"546.191","MEAN_ANOMALY":"276.0536","GP_ID":"209793683","ECCENTRICITY":"0.00014740","EPOCH":"2022-08-07T20:11:01.459104","MEAN_MOTION_DOT":"-0.00001658","SEMIMAJOR_AXIS":"6925.346","RCS_SIZE":"LARGE","CLASSIFICATION_TYPE":"U","MEAN_MOTION_DDOT":"0.0000000000000","OBJECT_ID":"2021-017J","ARG_OF_PERICENTER":"84.0621","COUNTRY_CODE":"US","OBJECT_NAME":"STARLINK-2140","INCLINATION":"53.0551","DECAY_DATE":null,"REV_AT_EPOCH":"8023","FILE":"3531552","TLE_LINE1":"1 47730U 21017J   22219.84098911 -.00001658  00000-0 -92455-4 0  9999","SITE":"AFETR","BSTAR":"-0.00009245500000","EPHEMERIS_TYPE":"0","RA_OF_ASC_NODE":"336.7668","ELEMENT_SET_NO":"999","PERIOD":"95.592","CENTER_NAME":"EARTH","LAUNCH_DATE":"2021-03-04","OBJECT_TYPE":"PAYLOAD","APOAPSIS":"548.232","NORAD_CAT_ID":"47730","TIME_SYSTEM":"UTC","MEAN_MOTION":"15.06400716","TLE_LINE2":"2 47730  53.0551 336.7668 0001474  84.0621 276.0536 15.06400716 80230","REF_FRAME":"TEME"},{"TLE_LINE2":"2 47731  53.0557 332.3349 0001079  72.5497 287.5610 15.06400483 80296","REF_FRAME":"TEME","MEAN_MOTION":"15.06400483","TIME_SYSTEM":"UTC","PERIOD":"95.592","CENTER_NAME":"EARTH","LAUNCH_DATE":"2021-03-04","OBJECT_TYPE":"PAYLOAD","APOAPSIS":"547.959","NORAD_CAT_ID":"47731","SITE":"AFETR","BSTAR":"0.00010009000000","RA_OF_ASC_NODE":"332.3349","EPHEMERIS_TYPE":"0","ELEMENT_SET_NO":"999","TLE_LINE1":"1 47731U 21017K   22219.71428367  .00001210  00000-0  10009-3 0  9994","FILE":"3531552","COUNTRY_CODE":"US","OBJECT_NAME":"STARLINK-2141","INCLINATION":"53.0557","ARG_OF_PERICENTER":"72.5497","REV_AT_EPOCH":"8029","DECAY_DATE":null,"SEMIMAJOR_AXIS":"6925.347","MEAN_MOTION_DOT":"0.00001210","RCS_SIZE":"LARGE","CLASSIFICATION_TYPE":"U","OBJECT_ID":"2021-017K","MEAN_MOTION_DDOT":"0.0000000000000","PERIAPSIS":"546.465","MEAN_ELEMENT_THEORY":"SGP4","MEAN_ANOMALY":"287.5610","GP_ID":"209793923","ECCENTRICITY":"0.00010790","EPOCH":"2022-08-07T17:08:34.109088"},{"ELEMENT_SET_NO":"999","EPHEMERIS_TYPE":"0","RA_OF_ASC_NODE":"248.5931","BSTAR":"0.00011465000000","SITE":"AFETR","APOAPSIS":"547.980","NORAD_CAT_ID":"47732","OBJECT_TYPE":"PAYLOAD","LAUNCH_DATE":"2021-03-04","CENTER_NAME":"EARTH","PERIOD":"95.592","MEAN_MOTION":"15.06401696","TIME_SYSTEM":"UTC","REF_FRAME":"TEME","TLE_LINE2":"2 47732  53.0534 248.5931 0001114  80.3720 279.7395 15.06401696 81441","EPOCH":"2022-08-07T11:42:51.243840","MEAN_ANOMALY":"279.7395","GP_ID":"209762761","ECCENTRICITY":"0.00011140","PERIAPSIS":"546.437","MEAN_ELEMENT_THEORY":"SGP4","OBJECT_ID":"2021-017L","MEAN_MOTION_DDOT":"0.0000000000000","CLASSIFICATION_TYPE":"U","RCS_SIZE":"LARGE","MEAN_MOTION_DOT":"0.00001427","SEMIMAJOR_AXIS":"6925.343","REV_AT_EPOCH":"8144","DECAY_DATE":null,"COUNTRY_CODE":"US","INCLINATION":"53.0534","OBJECT_NAME":"STARLINK-2142","ARG_OF_PERICENTER":"80.3720","TLE_LINE1":"1 47732U 21017L   22219.48809310  .00001427  00000-0  11465-3 0  9997","FILE":"3531314"},{"PERIAPSIS":"546.367","MEAN_ELEMENT_THEORY":"SGP4","MEAN_ANOMALY":"277.6975","GP_ID":"209792436","ECCENTRICITY":"0.00012090","EPOCH":"2022-08-07T20:02:23.249184","MEAN_MOTION_DOT":"0.00002107","SEMIMAJOR_AXIS":"6925.339","RCS_SIZE":"LARGE","CLASSIFICATION_TYPE":"U","OBJECT_ID":"2021-017M","MEAN_MOTION_DDOT":"0.0000000000000","COUNTRY_CODE":"US","INCLINATION":"53.0569","OBJECT_NAME":"STARLINK-2143","ARG_OF_PERICENTER":"82.4152","REV_AT_EPOCH":"8021","DECAY_DATE":null,"TLE_LINE1":"1 47733U 21017M   22219.83499131  .00002107  00000-0  16031-3 0  9993","FILE":"3531552","SITE":"AFETR","BSTAR":"0.00016031000000","RA_OF_ASC_NODE":"341.7854","EPHEMERIS_TYPE":"0","ELEMENT_SET_NO":"999","CENTER_NAME":"EARTH","PERIOD":"95.592","LAUNCH_DATE":"2021-03-04","OBJECT_TYPE":"PAYLOAD","APOAPSIS":"548.041","NORAD_CAT_ID":"47733","MEAN_MOTION":"15.06403149","TIME_SYSTEM":"UTC","TLE_LINE2":"2 47733  53.0569 341.7854 0001209  82.4152 277.6975 15.06403149 80217","REF_FRAME":"TEME"}];
